{
  "type": "FeatureCollection",
  "features": [
    {
      "type": "Feature",
      "properties": {
        "norad_id": 15362,
        "name": "NOVA 3",
        "group": "nnss",
        "lat": 63.22294564370971,
        "lon": 80.33238144991321,
        "alt_km": 1171.337691728163,
        "timestamp": "2025-12-16T03:53:27.324006+00:00",
        "meta_object_name": "NOVA 3",
        "meta_object_id": "1984-110A",
        "meta_epoch": "2025-12-15T07:57:36.993888",
        "meta_mean_motion": 13.23044866,
        "meta_eccentricity": 0.00303114,
        "meta_inclination": 90.1224,
        "meta_ra_of_asc_node": 80.5653,
        "meta_arg_of_pericenter": 324.5337,
        "meta_mean_anomaly": 105.314,
        "meta_ephemeris_type": 0,
        "meta_classification_type": "U",
        "meta_norad_cat_id": 15362,
        "meta_element_set_no": 999,
        "meta_rev_at_epoch": 98733,
        "meta_bstar": 8.0152121e-05,
        "meta_mean_motion_dot": 4.2e-07,
        "meta_mean_motion_ddot": 0,
        "tle_line1": "1 15362U 84110A   25349.33167817  .00000042  00000+0  80152-4 0  9995",
        "tle_line2": "2 15362  90.1224  80.5653 0030311 324.5337 105.3140 13.23044866987330"
      },
      "geometry": {
        "type": "Point",
        "coordinates": [
          80.33238144991321,
          63.22294564370971
        ]
      }
    },
    {
      "type": "Feature",
      "properties": {
        "norad_id": 15935,
        "name": "OSCAR 30",
        "group": "nnss",
        "lat": -57.46457518291917,
        "lon": 100.16217890762144,
        "alt_km": 1214.4581766127267,
        "timestamp": "2025-12-16T03:53:27.324016+00:00",
        "meta_object_name": "OSCAR 30",
        "meta_object_id": "1985-066A",
        "meta_epoch": "2025-12-15T08:42:15.056064",
        "meta_mean_motion": 13.3607868,
        "meta_eccentricity": 0.0169362,
        "meta_inclination": 90.1653,
        "meta_ra_of_asc_node": 99.8899,
        "meta_arg_of_pericenter": 76.5863,
        "meta_mean_anomaly": 344.483,
        "meta_ephemeris_type": 0,
        "meta_classification_type": "U",
        "meta_norad_cat_id": 15935,
        "meta_element_set_no": 999,
        "meta_rev_at_epoch": 96488,
        "meta_bstar": 0.00012700329,
        "meta_mean_motion_dot": 8.1e-07,
        "meta_mean_motion_ddot": 0,
        "tle_line1": "1 15935U 85066A   25349.36267426  .00000081  00000+0  12700-3 0  9998",
        "tle_line2": "2 15935  90.1653  99.8899 0169362  76.5863 344.4830 13.36078680964886"
      },
      "geometry": {
        "type": "Point",
        "coordinates": [
          100.16217890762144,
          -57.46457518291917
        ]
      }
    },
    {
      "type": "Feature",
      "properties": {
        "norad_id": 15936,
        "name": "OSCAR 24",
        "group": "nnss",
        "lat": 15.783393086469198,
        "lon": 92.31518209823638,
        "alt_km": 1069.0493068277765,
        "timestamp": "2025-12-16T03:53:27.324028+00:00",
        "meta_object_name": "OSCAR 24",
        "meta_object_id": "1985-066B",
        "meta_epoch": "2025-12-15T08:20:40.988832",
        "meta_mean_motion": 13.35936178,
        "meta_eccentricity": 0.01704631,
        "meta_inclination": 90.1792,
        "meta_ra_of_asc_node": 92.3515,
        "meta_arg_of_pericenter": 83.063,
        "meta_mean_anomaly": 340.013,
        "meta_ephemeris_type": 0,
        "meta_classification_type": "U",
        "meta_norad_cat_id": 15936,
        "meta_element_set_no": 999,
        "meta_rev_at_epoch": 96678,
        "meta_bstar": 0.00012129069,
        "meta_mean_motion_dot": 7.8e-07,
        "meta_mean_motion_ddot": 0,
        "tle_line1": "1 15936U 85066B   25349.34769663  .00000078  00000+0  12129-3 0  9998",
        "tle_line2": "2 15936  90.1792  92.3515 0170463  83.0630 340.0130 13.35936178966783"
      },
      "geometry": {
        "type": "Point",
        "coordinates": [
          92.31518209823638,
          15.783393086469198
        ]
      }
    },
    {
      "type": "Feature",
      "properties": {
        "norad_id": 17070,
        "name": "POLAR BEAR",
        "group": "nnss",
        "lat": -23.06171625177537,
        "lon": -176.52655775771137,
        "alt_km": 1006.5020411227224,
        "timestamp": "2025-12-16T03:53:27.324038+00:00",
        "meta_object_name": "POLAR BEAR",
        "meta_object_id": "1986-088A",
        "meta_epoch": "2025-12-15T07:53:16.873728",
        "meta_mean_motion": 13.7525125,
        "meta_eccentricity": 0.00411131,
        "meta_inclination": 89.6172,
        "meta_ra_of_asc_node": 183.6701,
        "meta_arg_of_pericenter": 111.7701,
        "meta_mean_anomaly": 61.7908,
        "meta_ephemeris_type": 0,
        "meta_classification_type": "U",
        "meta_norad_cat_id": 17070,
        "meta_element_set_no": 999,
        "meta_rev_at_epoch": 96014,
        "meta_bstar": 0.00012095624,
        "meta_mean_motion_dot": 1.28e-06,
        "meta_mean_motion_ddot": 0,
        "tle_line1": "1 17070U 86088A   25349.32866752  .00000128  00000+0  12096-3 0  9998",
        "tle_line2": "2 17070  89.6172 183.6701 0041113 111.7701  61.7908 13.75251250960146"
      },
      "geometry": {
        "type": "Point",
        "coordinates": [
          -176.52655775771137,
          -23.06171625177537
        ]
      }
    },
    {
      "type": "Feature",
      "properties": {
        "norad_id": 18361,
        "name": "OSCAR 27",
        "group": "nnss",
        "lat": -41.757515891753464,
        "lon": -100.9338589208656,
        "alt_km": 1021.3418739895124,
        "timestamp": "2025-12-16T03:53:27.324048+00:00",
        "meta_object_name": "OSCAR 27",
        "meta_object_id": "1987-080A",
        "meta_epoch": "2025-12-15T07:08:53.182464",
        "meta_mean_motion": 13.44907175,
        "meta_eccentricity": 0.01031021,
        "meta_inclination": 90.3742,
        "meta_ra_of_asc_node": 79.3681,
        "meta_arg_of_pericenter": 216.4081,
        "meta_mean_anomaly": 143.0025,
        "meta_ephemeris_type": 0,
        "meta_classification_type": "U",
        "meta_norad_cat_id": 18361,
        "meta_element_set_no": 999,
        "meta_rev_at_epoch": 87591,
        "meta_bstar": 0.00015039953,
        "meta_mean_motion_dot": 9.9e-07,
        "meta_mean_motion_ddot": 0,
        "tle_line1": "1 18361U 87080A   25349.29783776  .00000099  00000+0  15040-3 0  9994",
        "tle_line2": "2 18361  90.3742  79.3681 0103102 216.4081 143.0025 13.44907175875915"
      },
      "geometry": {
        "type": "Point",
        "coordinates": [
          -100.9338589208656,
          -41.757515891753464
        ]
      }
    },
    {
      "type": "Feature",
      "properties": {
        "norad_id": 18362,
        "name": "OSCAR 29",
        "group": "nnss",
        "lat": -47.95295806625596,
        "lon": -100.55690663946636,
        "alt_km": 1022.8971208294251,
        "timestamp": "2025-12-16T03:53:27.324059+00:00",
        "meta_object_name": "OSCAR 29",
        "meta_object_id": "1987-080B",
        "meta_epoch": "2025-12-15T07:24:49.493952",
        "meta_mean_motion": 13.44448856,
        "meta_eccentricity": 0.01040608,
        "meta_inclination": 90.3753,
        "meta_ra_of_asc_node": 79.8275,
        "meta_arg_of_pericenter": 239.7081,
        "meta_mean_anomaly": 181.2217,
        "meta_ephemeris_type": 0,
        "meta_classification_type": "U",
        "meta_norad_cat_id": 18362,
        "meta_element_set_no": 999,
        "meta_rev_at_epoch": 87544,
        "meta_bstar": 0.00013894462,
        "meta_mean_motion_dot": 9.1e-07,
        "meta_mean_motion_ddot": 0,
        "tle_line1": "1 18362U 87080B   25349.30890618  .00000091  00000+0  13894-3 0  9998",
        "tle_line2": "2 18362  90.3753  79.8275 0104060 239.7081 181.2217 13.44448856875445"
      },
      "geometry": {
        "type": "Point",
        "coordinates": [
          -100.55690663946636,
          -47.95295806625596
        ]
      }
    },
    {
      "type": "Feature",
      "properties": {
        "norad_id": 19070,
        "name": "OSCAR 23",
        "group": "nnss",
        "lat": 21.934199735951683,
        "lon": -163.37168238072553,
        "alt_km": 1015.1064805980677,
        "timestamp": "2025-12-16T03:53:27.324070+00:00",
        "meta_object_name": "OSCAR 23",
        "meta_object_id": "1988-033A",
        "meta_epoch": "2025-12-15T09:04:10.371648",
        "meta_mean_motion": 13.27787434,
        "meta_eccentricity": 0.01897485,
        "meta_inclination": 90.3211,
        "meta_ra_of_asc_node": 16.4745,
        "meta_arg_of_pericenter": 172.5901,
        "meta_mean_anomaly": 199.3987,
        "meta_ephemeris_type": 0,
        "meta_classification_type": "U",
        "meta_norad_cat_id": 19070,
        "meta_element_set_no": 999,
        "meta_rev_at_epoch": 82288,
        "meta_bstar": 0.00018528037,
        "meta_mean_motion_dot": 1.01e-06,
        "meta_mean_motion_ddot": 0,
        "tle_line1": "1 19070U 88033A   25349.37789782  .00000101  00000+0  18528-3 0  9991",
        "tle_line2": "2 19070  90.3211  16.4745 0189748 172.5901 199.3987 13.27787434822884"
      },
      "geometry": {
        "type": "Point",
        "coordinates": [
          -163.37168238072553,
          21.934199735951683
        ]
      }
    }
  ]
}